start=new Date('2022-01-26T00:00:00.000Z').valueOf();
sats=[{"PERIAPSIS":"546.169","ELEMENT_SET_NO":"999","GP_ID":"194644472","FILE":"3283711","RCS_SIZE":"LARGE","MEAN_MOTION":"15.06397701","MEAN_ANOMALY":"298.2737","MEAN_MOTION_DDOT":"0.0000000000000","OBJECT_ID":"2021-040AE","TLE_LINE2":"2 48456  53.0556  93.6855 0001519  61.8405 298.2737 15.06397701 39929","PERIOD":"95.592","ARG_OF_PERICENTER":"61.8405","TIME_SYSTEM":"UTC","SITE":"AFETR","CENTER_NAME":"EARTH","OBJECT_TYPE":"PAYLOAD","EPOCH":"2022-01-25T14:40:59.453472","MEAN_MOTION_DOT":"-0.00001097","REV_AT_EPOCH":"3992","REF_FRAME":"TEME","MEAN_ELEMENT_THEORY":"SGP4","TLE_LINE1":"1 48456U 21040AE  22025.61179923 -.00001097  00000-0 -54763-4 0  9991","LAUNCH_DATE":"2021-05-09","COUNTRY_CODE":"US","RA_OF_ASC_NODE":"93.6855","DECAY_DATE":null,"APOAPSIS":"548.273","ECCENTRICITY":"0.00015190","NORAD_CAT_ID":"48456","SEMIMAJOR_AXIS":"6925.356","EPHEMERIS_TYPE":"0","BSTAR":"-0.00005476300000","CLASSIFICATION_TYPE":"U","INCLINATION":"53.0556","OBJECT_NAME":"STARLINK-2508"},{"CENTER_NAME":"EARTH","OBJECT_TYPE":"PAYLOAD","MEAN_MOTION_DOT":"-0.00001058","REV_AT_EPOCH":"4057","EPOCH":"2022-01-25T14:46:56.791776","TLE_LINE1":"1 48458U 21040AG  22025.61593509 -.00001058  00000-0 -52179-4 0  9999","MEAN_ELEMENT_THEORY":"SGP4","REF_FRAME":"TEME","LAUNCH_DATE":"2021-05-09","COUNTRY_CODE":"US","RA_OF_ASC_NODE":"98.6703","DECAY_DATE":null,"NORAD_CAT_ID":"48458","APOAPSIS":"548.126","ECCENTRICITY":"0.00013080","BSTAR":"-0.00005217900000","CLASSIFICATION_TYPE":"U","EPHEMERIS_TYPE":"0","INCLINATION":"53.0570","SEMIMAJOR_AXIS":"6925.355","OBJECT_NAME":"STARLINK-2698","ELEMENT_SET_NO":"999","PERIAPSIS":"546.314","GP_ID":"194642721","FILE":"3283711","RCS_SIZE":"LARGE","MEAN_MOTION":"15.06397829","MEAN_ANOMALY":"279.3384","MEAN_MOTION_DDOT":"0.0000000000000","OBJECT_ID":"2021-040AG","TLE_LINE2":"2 48458  53.0570  98.6703 0001308  80.7753 279.3384 15.06397829 40578","PERIOD":"95.592","TIME_SYSTEM":"UTC","ARG_OF_PERICENTER":"80.7753","SITE":"AFETR"},{"GP_ID":"194611082","ELEMENT_SET_NO":"999","PERIAPSIS":"546.198","MEAN_MOTION":"15.06405987","RCS_SIZE":"LARGE","FILE":"3283407","OBJECT_ID":"2021-040AH","MEAN_MOTION_DDOT":"0.0000000000000","MEAN_ANOMALY":"287.9183","SITE":"AFETR","ARG_OF_PERICENTER":"72.1963","TIME_SYSTEM":"UTC","PERIOD":"95.592","TLE_LINE2":"2 48459  53.0546  98.8194 0001440  72.1963 287.9183 15.06405987 39860","CENTER_NAME":"EARTH","LAUNCH_DATE":"2021-05-09","TLE_LINE1":"1 48459U 21040AH  22025.58275528  .00000440  00000-0  48399-4 0  9995","MEAN_ELEMENT_THEORY":"SGP4","REF_FRAME":"TEME","REV_AT_EPOCH":"3986","OBJECT_TYPE":"PAYLOAD","MEAN_MOTION_DOT":"0.00000440","EPOCH":"2022-01-25T13:59:10.056192","DECAY_DATE":null,"RA_OF_ASC_NODE":"98.8194","COUNTRY_CODE":"US","OBJECT_NAME":"STARLINK-2579","INCLINATION":"53.0546","BSTAR":"0.00004839900000","EPHEMERIS_TYPE":"0","CLASSIFICATION_TYPE":"U","SEMIMAJOR_AXIS":"6925.330","NORAD_CAT_ID":"48459","ECCENTRICITY":"0.00014400","APOAPSIS":"548.192"},{"MEAN_MOTION_DDOT":"0.0000000000000","MEAN_ANOMALY":"292.4187","OBJECT_ID":"2021-040AJ","PERIOD":"95.592","TLE_LINE2":"2 48460  53.0558  98.2825 0001336  67.6944 292.4187 15.06398855 40381","SITE":"AFETR","TIME_SYSTEM":"UTC","ARG_OF_PERICENTER":"67.6944","GP_ID":"194644222","ELEMENT_SET_NO":"999","PERIAPSIS":"546.292","FILE":"3283711","MEAN_MOTION":"15.06398855","RCS_SIZE":"LARGE","COUNTRY_CODE":"US","DECAY_DATE":null,"RA_OF_ASC_NODE":"98.2825","NORAD_CAT_ID":"48460","APOAPSIS":"548.142","ECCENTRICITY":"0.00013360","OBJECT_NAME":"STARLINK-2582","INCLINATION":"53.0558","BSTAR":"-0.00004404100000","CLASSIFICATION_TYPE":"U","EPHEMERIS_TYPE":"0","SEMIMAJOR_AXIS":"6925.352","CENTER_NAME":"EARTH","MEAN_ELEMENT_THEORY":"SGP4","TLE_LINE1":"1 48460U 21040AJ  22025.70165642 -.00000937  00000-0 -44041-4 0  9999","REF_FRAME":"TEME","REV_AT_EPOCH":"4038","OBJECT_TYPE":"PAYLOAD","MEAN_MOTION_DOT":"-0.00000937","EPOCH":"2022-01-25T16:50:23.114688","LAUNCH_DATE":"2021-05-09"},{"LAUNCH_DATE":"2021-05-09","REV_AT_EPOCH":"3986","OBJECT_TYPE":"PAYLOAD","MEAN_MOTION_DOT":"0.00000954","EPOCH":"2022-01-25T14:00:30.897216","REF_FRAME":"TEME","TLE_LINE1":"1 48461U 21040AK  22025.58369094  .00000954  00000-0  82904-4 0  9990","MEAN_ELEMENT_THEORY":"SGP4","CENTER_NAME":"EARTH","SEMIMAJOR_AXIS":"6925.344","INCLINATION":"53.0543","BSTAR":"0.00008290400000","CLASSIFICATION_TYPE":"U","EPHEMERIS_TYPE":"0","OBJECT_NAME":"STARLINK-2693","APOAPSIS":"548.261","ECCENTRICITY":"0.00015190","NORAD_CAT_ID":"48461","RA_OF_ASC_NODE":"98.8056","DECAY_DATE":null,"COUNTRY_CODE":"US","RCS_SIZE":"LARGE","MEAN_MOTION":"15.06401481","FILE":"3283407","PERIAPSIS":"546.157","ELEMENT_SET_NO":"999","GP_ID":"194612082","ARG_OF_PERICENTER":"59.9253","TIME_SYSTEM":"UTC","SITE":"AFETR","TLE_LINE2":"2 48461  53.0543  98.8056 0001519  59.9253 300.1887 15.06401481 39863","PERIOD":"95.592","OBJECT_ID":"2021-040AK","MEAN_ANOMALY":"300.1887","MEAN_MOTION_DDOT":"0.0000000000000"},{"FILE":"3283711","MEAN_MOTION":"15.06409256","RCS_SIZE":"LARGE","GP_ID":"194643221","ELEMENT_SET_NO":"999","PERIAPSIS":"546.286","PERIOD":"95.592","TLE_LINE2":"2 48462  53.0532 103.6997 0001299  85.2951 274.8186 15.06409256 39792","SITE":"AFETR","TIME_SYSTEM":"UTC","ARG_OF_PERICENTER":"85.2951","MEAN_MOTION_DDOT":"0.0000000000000","MEAN_ANOMALY":"274.8186","OBJECT_ID":"2021-040AL","TLE_LINE1":"1 48462U 21040AL  22025.60625512  .00001716  00000-0  13404-3 0  9999","MEAN_ELEMENT_THEORY":"SGP4","REF_FRAME":"TEME","REV_AT_EPOCH":"3979","OBJECT_TYPE":"PAYLOAD","MEAN_MOTION_DOT":"0.00001716","EPOCH":"2022-01-25T14:33:00.442368","LAUNCH_DATE":"2021-05-09","CENTER_NAME":"EARTH","NORAD_CAT_ID":"48462","APOAPSIS":"548.085","ECCENTRICITY":"0.00012990","OBJECT_NAME":"STARLINK-2683","BSTAR":"0.00013404000000","EPHEMERIS_TYPE":"0","CLASSIFICATION_TYPE":"U","INCLINATION":"53.0532","SEMIMAJOR_AXIS":"6925.320","COUNTRY_CODE":"US","DECAY_DATE":null,"RA_OF_ASC_NODE":"103.6997"},{"PERIAPSIS":"546.349","ELEMENT_SET_NO":"999","GP_ID":"194610583","FILE":"3283407","RCS_SIZE":"LARGE","MEAN_MOTION":"15.06399756","MEAN_ANOMALY":"286.8058","MEAN_MOTION_DDOT":"0.0000000000000","OBJECT_ID":"2021-040AM","TLE_LINE2":"2 48463  53.0564 104.1692 0001249  73.3068 286.8058 15.06399756 39781","PERIOD":"95.592","TIME_SYSTEM":"UTC","ARG_OF_PERICENTER":"73.3068","SITE":"AFETR","CENTER_NAME":"EARTH","OBJECT_TYPE":"PAYLOAD","MEAN_MOTION_DOT":"-0.00000327","EPOCH":"2022-01-25T12:09:41.891904","REV_AT_EPOCH":"3978","REF_FRAME":"TEME","TLE_LINE1":"1 48463U 21040AM  22025.50673486 -.00000327  00000-0 -30517-5 0  9997","MEAN_ELEMENT_THEORY":"SGP4","LAUNCH_DATE":"2021-05-09","COUNTRY_CODE":"US","RA_OF_ASC_NODE":"104.1692","DECAY_DATE":null,"APOAPSIS":"548.079","ECCENTRICITY":"0.00012490","NORAD_CAT_ID":"48463","SEMIMAJOR_AXIS":"6925.349","INCLINATION":"53.0564","BSTAR":"-0.00000305170000","EPHEMERIS_TYPE":"0","CLASSIFICATION_TYPE":"U","OBJECT_NAME":"STARLINK-2689"},{"GP_ID":"194643723","PERIAPSIS":"546.185","ELEMENT_SET_NO":"999","MEAN_MOTION":"15.06404406","RCS_SIZE":"LARGE","FILE":"3283711","OBJECT_ID":"2021-040AN","MEAN_MOTION_DDOT":"0.0000000000000","MEAN_ANOMALY":"285.5288","SITE":"AFETR","ARG_OF_PERICENTER":"74.5863","TIME_SYSTEM":"UTC","PERIOD":"95.592","TLE_LINE2":"2 48464  53.0550 103.3680 0001466  74.5863 285.5288 15.06404406 39805","CENTER_NAME":"EARTH","LAUNCH_DATE":"2021-05-09","REF_FRAME":"TEME","TLE_LINE1":"1 48464U 21040AN  22025.68459380  .00001826  00000-0  14140-3 0  9997","MEAN_ELEMENT_THEORY":"SGP4","MEAN_MOTION_DOT":"0.00001826","OBJECT_TYPE":"PAYLOAD","REV_AT_EPOCH":"3980","EPOCH":"2022-01-25T16:25:48.904320","DECAY_DATE":null,"RA_OF_ASC_NODE":"103.3680","COUNTRY_CODE":"US","OBJECT_NAME":"STARLINK-2686","SEMIMAJOR_AXIS":"6925.335","EPHEMERIS_TYPE":"0","BSTAR":"0.00014140000000","INCLINATION":"53.0550","CLASSIFICATION_TYPE":"U","APOAPSIS":"548.215","ECCENTRICITY":"0.00014660","NORAD_CAT_ID":"48464"},{"CENTER_NAME":"EARTH","LAUNCH_DATE":"2021-05-09","EPOCH":"2022-01-25T15:06:12.126528","OBJECT_TYPE":"PAYLOAD","MEAN_MOTION_DOT":"0.00000780","REV_AT_EPOCH":"3980","MEAN_ELEMENT_THEORY":"SGP4","TLE_LINE1":"1 48465U 21040AP  22025.62930702  .00000780  00000-0  71257-4 0  9995","REF_FRAME":"TEME","RA_OF_ASC_NODE":"103.6119","DECAY_DATE":null,"COUNTRY_CODE":"US","BSTAR":"0.00007125700000","INCLINATION":"53.0571","EPHEMERIS_TYPE":"0","CLASSIFICATION_TYPE":"U","SEMIMAJOR_AXIS":"6925.354","OBJECT_NAME":"STARLINK-2681","NORAD_CAT_ID":"48465","APOAPSIS":"548.176","ECCENTRICITY":"0.00013820","ELEMENT_SET_NO":"999","PERIAPSIS":"546.262","GP_ID":"194644473","RCS_SIZE":"LARGE","MEAN_MOTION":"15.06398203","FILE":"3283711","OBJECT_ID":"2021-040AP","MEAN_ANOMALY":"277.5623","MEAN_MOTION_DDOT":"0.0000000000000","TIME_SYSTEM":"UTC","ARG_OF_PERICENTER":"82.5523","SITE":"AFETR","TLE_LINE2":"2 48465  53.0571 103.6119 0001382  82.5523 277.5623 15.06398203 39809","PERIOD":"95.592"},{"CENTER_NAME":"EARTH","LAUNCH_DATE":"2021-05-09","REV_AT_EPOCH":"3981","OBJECT_TYPE":"PAYLOAD","MEAN_MOTION_DOT":"-0.00000445","EPOCH":"2022-01-25T16:20:30.663744","REF_FRAME":"TEME","MEAN_ELEMENT_THEORY":"SGP4","TLE_LINE1":"1 48466U 21040AQ  22025.68091046 -.00000445  00000-0 -10993-4 0  9991","RA_OF_ASC_NODE":"103.3806","DECAY_DATE":null,"COUNTRY_CODE":"US","SEMIMAJOR_AXIS":"6925.340","CLASSIFICATION_TYPE":"U","BSTAR":"-0.00001099300000","EPHEMERIS_TYPE":"0","INCLINATION":"53.0553","OBJECT_NAME":"STARLINK-2687","APOAPSIS":"548.122","ECCENTRICITY":"0.00013240","NORAD_CAT_ID":"48466","PERIAPSIS":"546.289","ELEMENT_SET_NO":"999","GP_ID":"194642722","RCS_SIZE":"LARGE","MEAN_MOTION":"15.06402645","FILE":"3283711","OBJECT_ID":"2021-040AQ","MEAN_ANOMALY":"290.0883","MEAN_MOTION_DDOT":"0.0000000000000","ARG_OF_PERICENTER":"70.0248","TIME_SYSTEM":"UTC","SITE":"AFETR","TLE_LINE2":"2 48466  53.0553 103.3806 0001324  70.0248 290.0883 15.06402645 39817","PERIOD":"95.592"}];
